{"fetched_at":"2026-07-12T17:32:25.734Z","source":"https://celestrak.org/NORAD/elements/gp.php?GROUP=planet&FORMAT=JSON","constellation":"skysat","records":[{"OBJECT_NAME":"SKYSAT-A","OBJECT_ID":"2013-066C","EPOCH":"2026-07-11T22:12:30.308256","CLASSIFICATION_TYPE":"U","MEAN_MOTION":15.13105178,"ECCENTRICITY":0.0020184,"INCLINATION":97.3805,"RA_OF_ASC_NODE":241.5341,"ARG_OF_PERICENTER":225.2191,"MEAN_ANOMALY":134.74,"EPHEMERIS_TYPE":0,"NORAD_CAT_ID":39418,"ELEMENT_SET_NO":999,"REV_AT_EPOCH":69222,"BSTAR":0.000086826,"MEAN_MOTION_DOT":0.0000148,"MEAN_MOTION_DDOT":0},{"OBJECT_NAME":"SKYSAT-B","OBJECT_ID":"2014-037D","EPOCH":"2026-07-12T08:11:04.827840","CLASSIFICATION_TYPE":"U","MEAN_MOTION":14.88088006,"ECCENTRICITY":0.0005346,"INCLINATION":98.3853,"RA_OF_ASC_NODE":153.7429,"ARG_OF_PERICENTER":181.7675,"MEAN_ANOMALY":178.3522,"EPHEMERIS_TYPE":0,"NORAD_CAT_ID":40072,"ELEMENT_SET_NO":999,"REV_AT_EPOCH":64970,"BSTAR":0.000076703,"MEAN_MOTION_DOT":0.00000644,"MEAN_MOTION_DDOT":0},{"OBJECT_NAME":"SKYSAT-C1","OBJECT_ID":"2016-040C","EPOCH":"2026-07-11T15:19:14.131200","CLASSIFICATION_TYPE":"U","MEAN_MOTION":15.36708815,"ECCENTRICITY":0.0000645,"INCLINATION":96.9557,"RA_OF_ASC_NODE":223.0369,"ARG_OF_PERICENTER":355.4804,"MEAN_ANOMALY":4.6435,"EPHEMERIS_TYPE":0,"NORAD_CAT_ID":41601,"ELEMENT_SET_NO":999,"REV_AT_EPOCH":56162,"BSTAR":0.00015588995,"MEAN_MOTION_DOT":0.00005514,"MEAN_MOTION_DDOT":0},{"OBJECT_NAME":"SKYSAT-C4","OBJECT_ID":"2016-058B","EPOCH":"2026-07-12T12:38:15.955584","CLASSIFICATION_TYPE":"U","MEAN_MOTION":15.49377309,"ECCENTRICITY":0.0003375,"INCLINATION":96.9166,"RA_OF_ASC_NODE":214.2493,"ARG_OF_PERICENTER":121.7032,"MEAN_ANOMALY":238.455,"EPHEMERIS_TYPE":0,"NORAD_CAT_ID":41771,"ELEMENT_SET_NO":999,"REV_AT_EPOCH":54939,"BSTAR":0.00021243,"MEAN_MOTION_DOT":0.00011565,"MEAN_MOTION_DDOT":0},{"OBJECT_NAME":"SKYSAT-C5","OBJECT_ID":"2016-058C","EPOCH":"2026-07-12T08:10:23.123424","CLASSIFICATION_TYPE":"U","MEAN_MOTION":15.3369386,"ECCENTRICITY":0.0002214,"INCLINATION":97.0459,"RA_OF_ASC_NODE":232.8553,"ARG_OF_PERICENTER":168.5787,"MEAN_ANOMALY":191.5507,"EPHEMERIS_TYPE":0,"NORAD_CAT_ID":41772,"ELEMENT_SET_NO":999,"REV_AT_EPOCH":54760,"BSTAR":0.00013571,"MEAN_MOTION_DOT":0.00004347,"MEAN_MOTION_DDOT":0},{"OBJECT_NAME":"SKYSAT-C2","OBJECT_ID":"2016-058D","EPOCH":"2026-07-12T01:01:55.170624","CLASSIFICATION_TYPE":"U","MEAN_MOTION":15.42631426,"ECCENTRICITY":0.00019175,"INCLINATION":97.016,"RA_OF_ASC_NODE":214.2092,"ARG_OF_PERICENTER":6.6282,"MEAN_ANOMALY":353.4991,"EPHEMERIS_TYPE":0,"NORAD_CAT_ID":41773,"ELEMENT_SET_NO":999,"REV_AT_EPOCH":54888,"BSTAR":0.0001745309,"MEAN_MOTION_DOT":0.00007516,"MEAN_MOTION_DDOT":0},{"OBJECT_NAME":"SKYSAT-C3","OBJECT_ID":"2016-058E","EPOCH":"2026-07-12T12:41:58.642944","CLASSIFICATION_TYPE":"U","MEAN_MOTION":15.5362199,"ECCENTRICITY":0.000237,"INCLINATION":96.8992,"RA_OF_ASC_NODE":223.4174,"ARG_OF_PERICENTER":135.3736,"MEAN_ANOMALY":224.771,"EPHEMERIS_TYPE":0,"NORAD_CAT_ID":41774,"ELEMENT_SET_NO":999,"REV_AT_EPOCH":55004,"BSTAR":0.00024574,"MEAN_MOTION_DOT":0.00015589,"MEAN_MOTION_DDOT":0},{"OBJECT_NAME":"SKYSAT-C11","OBJECT_ID":"2017-068A","EPOCH":"2026-07-12T10:02:00.916224","CLASSIFICATION_TYPE":"U","MEAN_MOTION":15.59216138,"ECCENTRICITY":0.0000966,"INCLINATION":97.4366,"RA_OF_ASC_NODE":343.3758,"ARG_OF_PERICENTER":162.5128,"MEAN_ANOMALY":197.6162,"EPHEMERIS_TYPE":0,"NORAD_CAT_ID":42987,"ELEMENT_SET_NO":999,"REV_AT_EPOCH":48717,"BSTAR":0.0002294,"MEAN_MOTION_DOT":0.00017889,"MEAN_MOTION_DDOT":0},{"OBJECT_NAME":"SKYSAT-C10","OBJECT_ID":"2017-068B","EPOCH":"2026-07-12T04:43:26.397120","CLASSIFICATION_TYPE":"U","MEAN_MOTION":15.35077079,"ECCENTRICITY":0.00014071,"INCLINATION":97.4527,"RA_OF_ASC_NODE":330.2987,"ARG_OF_PERICENTER":109.1454,"MEAN_ANOMALY":250.9941,"EPHEMERIS_TYPE":0,"NORAD_CAT_ID":42988,"ELEMENT_SET_NO":999,"REV_AT_EPOCH":48619,"BSTAR":0.00018867032,"MEAN_MOTION_DOT":0.00006339,"MEAN_MOTION_DDOT":0},{"OBJECT_NAME":"SKYSAT-C9","OBJECT_ID":"2017-068C","EPOCH":"2026-07-11T04:28:53.357088","CLASSIFICATION_TYPE":"U","MEAN_MOTION":15.42149851,"ECCENTRICITY":0.00089454,"INCLINATION":97.4444,"RA_OF_ASC_NODE":330.445,"ARG_OF_PERICENTER":57.4451,"MEAN_ANOMALY":302.7659,"EPHEMERIS_TYPE":0,"NORAD_CAT_ID":42989,"ELEMENT_SET_NO":999,"REV_AT_EPOCH":48645,"BSTAR":0.00019496411,"MEAN_MOTION_DOT":0.00008274,"MEAN_MOTION_DDOT":0},{"OBJECT_NAME":"SKYSAT-C8","OBJECT_ID":"2017-068D","EPOCH":"2026-07-11T20:51:57.265920","CLASSIFICATION_TYPE":"U","MEAN_MOTION":15.37449279,"ECCENTRICITY":0.00012484,"INCLINATION":97.4545,"RA_OF_ASC_NODE":329.8628,"ARG_OF_PERICENTER":101.2013,"MEAN_ANOMALY":258.9372,"EPHEMERIS_TYPE":0,"NORAD_CAT_ID":42990,"ELEMENT_SET_NO":999,"REV_AT_EPOCH":48610,"BSTAR":0.00017273211,"MEAN_MOTION_DOT":0.00006258,"MEAN_MOTION_DDOT":0},{"OBJECT_NAME":"SKYSAT-C7","OBJECT_ID":"2017-068E","EPOCH":"2026-07-12T04:32:29.236128","CLASSIFICATION_TYPE":"U","MEAN_MOTION":15.37404124,"ECCENTRICITY":0.0005961,"INCLINATION":97.4554,"RA_OF_ASC_NODE":331.1783,"ARG_OF_PERICENTER":31.4631,"MEAN_ANOMALY":328.6968,"EPHEMERIS_TYPE":0,"NORAD_CAT_ID":42991,"ELEMENT_SET_NO":999,"REV_AT_EPOCH":48621,"BSTAR":0.00016759645,"MEAN_MOTION_DOT":0.00006063,"MEAN_MOTION_DDOT":0},{"OBJECT_NAME":"SKYSAT-C6","OBJECT_ID":"2017-068F","EPOCH":"2026-07-11T20:47:50.825472","CLASSIFICATION_TYPE":"U","MEAN_MOTION":15.3413333,"ECCENTRICITY":0.00051622,"INCLINATION":97.4592,"RA_OF_ASC_NODE":330.7193,"ARG_OF_PERICENTER":97.3545,"MEAN_ANOMALY":262.8285,"EPHEMERIS_TYPE":0,"NORAD_CAT_ID":42992,"ELEMENT_SET_NO":999,"REV_AT_EPOCH":48610,"BSTAR":0.00017430622,"MEAN_MOTION_DOT":0.00005678,"MEAN_MOTION_DDOT":0},{"OBJECT_NAME":"SKYSAT-C12","OBJECT_ID":"2018-099AR","EPOCH":"2026-07-12T13:00:32.357088","CLASSIFICATION_TYPE":"U","MEAN_MOTION":15.49725608,"ECCENTRICITY":0.0005529,"INCLINATION":96.9256,"RA_OF_ASC_NODE":215.7709,"ARG_OF_PERICENTER":76.0544,"MEAN_ANOMALY":284.1323,"EPHEMERIS_TYPE":0,"NORAD_CAT_ID":43797,"ELEMENT_SET_NO":999,"REV_AT_EPOCH":42578,"BSTAR":0.00022508,"MEAN_MOTION_DOT":0.00012415,"MEAN_MOTION_DDOT":0}]}
